[{"OBJECT_NAME":"ONEWEB-0186","OBJECT_ID":"2021-031V","EPOCH":"2026-03-09T16:58:32.104992","MEAN_MOTION":13.14503345,"ECCENTRICITY":0.00017421,"INCLINATION":87.899,"RA_OF_ASC_NODE":309.5438,"ARG_OF_PERICENTER":78.667,"MEAN_ANOMALY":281.4656,"EPHEMERIS_TYPE":0,"CLASSIFICATION_TYPE":"U","NORAD_CAT_ID":48229,"ELEMENT_SET_NO":999,"REV_AT_EPOCH":23531,"BSTAR":-0.00024146557,"MEAN_MOTION_DOT":-7.7e-7,"MEAN_MOTION_DDOT":0},{"OBJECT_NAME":"COSMOS 457","OBJECT_ID":"1971-099A","EPOCH":"2026-03-09T17:22:41.928096","MEAN_MOTION":13.16113343,"ECCENTRICITY":0.00223107,"INCLINATION":74.0365,"RA_OF_ASC_NODE":159.0991,"ARG_OF_PERICENTER":81.8482,"MEAN_ANOMALY":32.906,"EPHEMERIS_TYPE":0,"CLASSIFICATION_TYPE":"U","NORAD_CAT_ID":5614,"ELEMENT_SET_NO":999,"REV_AT_EPOCH":60847,"BSTAR":0.00099329993,"MEAN_MOTION_DOT":3.59e-6,"MEAN_MOTION_DDOT":0}]
